{
  "type": "FeatureCollection",
  "features": [
    {
      "type": "Feature",
      "properties": {
        "norad_id": 49809,
        "name": "GSAT0223 (GALILEO 27)",
        "group": "gnss",
        "lat": 9.258464989056188,
        "lon": 160.40194823376427,
        "alt_km": 23220.07726550025,
        "timestamp": "2025-12-22T16:55:17.705628+00:00",
        "meta_object_name": "GSAT0223 (GALILEO 27)",
        "meta_object_id": "2021-116A",
        "meta_epoch": "2025-12-19T11:56:47.637312",
        "meta_mean_motion": 1.7047609,
        "meta_eccentricity": 0.00044147,
        "meta_inclination": 57.2179,
        "meta_ra_of_asc_node": 346.5305,
        "meta_arg_of_pericenter": 254.6091,
        "meta_mean_anomaly": 105.9777,
        "meta_ephemeris_type": 0,
        "meta_classification_type": "U",
        "meta_norad_cat_id": 49809,
        "meta_element_set_no": 999,
        "meta_rev_at_epoch": 2512,
        "meta_bstar": 0,
        "meta_mean_motion_dot": -7.2e-07,
        "meta_mean_motion_ddot": 0,
        "tle_line1": "1 49809U 21116A   25353.49777358 -.00000072  00000+0  00000+0 0  9997",
        "tle_line2": "2 49809  57.2179 346.5305 0004414 254.6091 105.9777  1.70476090 25129"
      },
      "geometry": {
        "type": "Point",
        "coordinates": [
          160.40194823376427,
          9.258464989056188
        ]
      }
    },
    {
      "type": "Feature",
      "properties": {
        "norad_id": 49810,
        "name": "GSAT0224 (GALILEO 28)",
        "group": "gnss",
        "lat": -55.42787624228511,
        "lon": -82.82177539572483,
        "alt_km": 23217.589502245864,
        "timestamp": "2025-12-22T16:55:17.705648+00:00",
        "meta_object_name": "GSAT0224 (GALILEO 28)",
        "meta_object_id": "2021-116B",
        "meta_epoch": "2025-12-20T04:43:34.979232",
        "meta_mean_motion": 1.70476091,
        "meta_eccentricity": 0.0003747,
        "meta_inclination": 57.2188,
        "meta_ra_of_asc_node": 346.5104,
        "meta_arg_of_pericenter": 259.7047,
        "meta_mean_anomaly": 282.5653,
        "meta_ephemeris_type": 0,
        "meta_classification_type": "U",
        "meta_norad_cat_id": 49810,
        "meta_element_set_no": 999,
        "meta_rev_at_epoch": 2515,
        "meta_bstar": 0,
        "meta_mean_motion_dot": -7e-07,
        "meta_mean_motion_ddot": 0,
        "tle_line1": "1 49810U 21116B   25354.19693263 -.00000070  00000+0  00000+0 0  9997",
        "tle_line2": "2 49810  57.2188 346.5104 0003747 259.7047 282.5653  1.70476091 25152"
      },
      "geometry": {
        "type": "Point",
        "coordinates": [
          -82.82177539572483,
          -55.42787624228511
        ]
      }
    },
    {
      "type": "Feature",
      "properties": {
        "norad_id": 52984,
        "name": "COSMOS 2557 (706K)",
        "group": "gnss",
        "lat": 26.187967859365216,
        "lon": -25.68954732851777,
        "alt_km": 19139.212902930474,
        "timestamp": "2025-12-22T16:55:17.705669+00:00",
        "meta_object_name": "COSMOS 2557 (706K)",
        "meta_object_id": "2022-075A",
        "meta_epoch": "2025-12-21T17:28:49.224000",
        "meta_mean_motion": 2.13102032,
        "meta_eccentricity": 0.00135441,
        "meta_inclination": 64.4048,
        "meta_ra_of_asc_node": 320.7357,
        "meta_arg_of_pericenter": 278.4426,
        "meta_mean_anomaly": 81.3985,
        "meta_ephemeris_type": 0,
        "meta_classification_type": "U",
        "meta_norad_cat_id": 52984,
        "meta_element_set_no": 999,
        "meta_rev_at_epoch": 2693,
        "meta_bstar": 0,
        "meta_mean_motion_dot": -4.6e-07,
        "meta_mean_motion_ddot": 0,
        "tle_line1": "1 52984U 22075A   25355.72834750 -.00000046  00000+0  00000+0 0  9999",
        "tle_line2": "2 52984  64.4048 320.7357 0013544 278.4426  81.3985  2.13102032 26931"
      },
      "geometry": {
        "type": "Point",
        "coordinates": [
          -25.68954732851777,
          26.187967859365216
        ]
      }
    },
    {
      "type": "Feature",
      "properties": {
        "norad_id": 54031,
        "name": "COSMOS 2559 (707K)",
        "group": "gnss",
        "lat": 10.822554578128223,
        "lon": 135.51253060402223,
        "alt_km": 19102.103045695225,
        "timestamp": "2025-12-22T16:55:17.705687+00:00",
        "meta_object_name": "COSMOS 2559 (707K)",
        "meta_object_id": "2022-130A",
        "meta_epoch": "2025-12-22T00:24:12.527424",
        "meta_mean_motion": 2.13101328,
        "meta_eccentricity": 0.00115649,
        "meta_inclination": 64.377,
        "meta_ra_of_asc_node": 320.8148,
        "meta_arg_of_pericenter": 191.8741,
        "meta_mean_anomaly": 168.0944,
        "meta_ephemeris_type": 0,
        "meta_classification_type": "U",
        "meta_norad_cat_id": 54031,
        "meta_element_set_no": 999,
        "meta_rev_at_epoch": 2491,
        "meta_bstar": 0,
        "meta_mean_motion_dot": -4.4e-07,
        "meta_mean_motion_ddot": 0,
        "tle_line1": "1 54031U 22130A   25356.01681166 -.00000044  00000+0  00000+0 0  9998",
        "tle_line2": "2 54031  64.3770 320.8148 0011564 191.8741 168.0944  2.13101328 24915"
      },
      "geometry": {
        "type": "Point",
        "coordinates": [
          135.51253060402223,
          10.822554578128223
        ]
      }
    },
    {
      "type": "Feature",
      "properties": {
        "norad_id": 54377,
        "name": "COSMOS 2564 (761)",
        "group": "gnss",
        "lat": -59.500168015777945,
        "lon": 145.24450751897706,
        "alt_km": 19133.898350958134,
        "timestamp": "2025-12-22T16:55:17.705704+00:00",
        "meta_object_name": "COSMOS 2564 (761)",
        "meta_object_id": "2022-161A",
        "meta_epoch": "2025-12-21T20:39:47.776032",
        "meta_mean_motion": 2.13102051,
        "meta_eccentricity": 0.00085446,
        "meta_inclination": 64.7387,
        "meta_ra_of_asc_node": 198.5958,
        "meta_arg_of_pericenter": 203.7304,
        "meta_mean_anomaly": 156.2998,
        "meta_ephemeris_type": 0,
        "meta_classification_type": "U",
        "meta_norad_cat_id": 54377,
        "meta_element_set_no": 999,
        "meta_rev_at_epoch": 2385,
        "meta_bstar": 0,
        "meta_mean_motion_dot": 9.6e-07,
        "meta_mean_motion_ddot": 0,
        "tle_line1": "1 54377U 22161A   25355.86096963  .00000096  00000+0  00000+0 0  9998",
        "tle_line2": "2 54377  64.7387 198.5958 0008544 203.7304 156.2998  2.13102051 23851"
      },
      "geometry": {
        "type": "Point",
        "coordinates": [
          145.24450751897706,
          -59.500168015777945
        ]
      }
    },
    {
      "type": "Feature",
      "properties": {
        "norad_id": 55268,
        "name": "GPS BIII-6  (PRN 28)",
        "group": "gnss",
        "lat": 1.272362579676543,
        "lon": -25.444331310220655,
        "alt_km": 20192.958939731685,
        "timestamp": "2025-12-22T16:55:17.705721+00:00",
        "meta_object_name": "GPS BIII-6  (PRN 28)",
        "meta_object_id": "2023-009A",
        "meta_epoch": "2025-12-21T11:01:56.819424",
        "meta_mean_motion": 2.00555004,
        "meta_eccentricity": 0.00037189,
        "meta_inclination": 55.1065,
        "meta_ra_of_asc_node": 155.503,
        "meta_arg_of_pericenter": 355.6529,
        "meta_mean_anomaly": 3.5346,
        "meta_ephemeris_type": 0,
        "meta_classification_type": "U",
        "meta_norad_cat_id": 55268,
        "meta_element_set_no": 999,
        "meta_rev_at_epoch": 2167,
        "meta_bstar": 0,
        "meta_mean_motion_dot": 6.8e-07,
        "meta_mean_motion_ddot": 0,
        "tle_line1": "1 55268U 23009A   25355.45968541  .00000068  00000+0  00000+0 0  9994",
        "tle_line2": "2 55268  55.1065 155.5030 0003718 355.6529   3.5346  2.00555004 21671"
      },
      "geometry": {
        "type": "Point",
        "coordinates": [
          -25.444331310220655,
          1.272362579676543
        ]
      }
    },
    {
      "type": "Feature",
      "properties": {
        "norad_id": 56564,
        "name": "BEIDOU-3 G4 (C62)",
        "group": "gnss",
        "lat": -0.28950820834376256,
        "lon": 145.36528146963846,
        "alt_km": 35776.02687977942,
        "timestamp": "2025-12-22T16:55:17.705739+00:00",
        "meta_object_name": "BEIDOU-3 G4 (C62)",
        "meta_object_id": "2023-066A",
        "meta_epoch": "2025-12-22T05:22:00.430176",
        "meta_mean_motion": 1.00271314,
        "meta_eccentricity": 0.0002668,
        "meta_inclination": 0.7954,
        "meta_ra_of_asc_node": 302.7801,
        "meta_arg_of_pericenter": 226.6515,
        "meta_mean_anomaly": 162.1611,
        "meta_ephemeris_type": 0,
        "meta_classification_type": "U",
        "meta_norad_cat_id": 56564,
        "meta_element_set_no": 999,
        "meta_rev_at_epoch": 962,
        "meta_bstar": 0,
        "meta_mean_motion_dot": -8.8e-07,
        "meta_mean_motion_ddot": 0,
        "tle_line1": "1 56564U 23066A   25356.22361609 -.00000088  00000+0  00000+0 0  9998",
        "tle_line2": "2 56564   0.7954 302.7801 0002668 226.6515 162.1611  1.00271314  9627"
      },
      "geometry": {
        "type": "Point",
        "coordinates": [
          145.36528146963846,
          -0.28950820834376256
        ]
      }
    }
  ]
}